NORAD_CAT_ID,OBJECT_NAME,OBJECT_TYPE,EPOCH,MEAN_MOTION,ECCENTRICITY,INCLINATION,RA_OF_ASC_NODE,ARG_OF_PERICENTER,MEAN_ANOMALY,BSTAR,MEAN_MOTION_DOT,MEAN_MOTION_DDOT,TLE_LINE0,TLE_LINE1,TLE_LINE2,SEMIMAJOR_AXIS,PERIOD,APOGEE,PERIGEE,DECAYED
55299.0,STARLINK-5270,PAYLOAD,2024-07-10 21:57:23,14.9833494,0.0002839,70.0007,114.2138,270.8118,89.2716,-9.6989e-05,-1.25e-05,0.0,0 STARLINK-5270,1 55299U 23010AG  24192.91485196 -.00001250  00000-0 -96989-4 0  9992,2 55299  70.0007 114.2138 0002839 270.8118  89.2716 14.98334940 83262,6950.178,96.107,574.016,570.069,0.0
55299.0,STARLINK-5270,PAYLOAD,2024-07-11 04:21:55,14.98336046,0.0002822,70.0006,113.54,269.3443,90.7393,-7.2805e-05,-9.62e-06,0.0,0 STARLINK-5270,1 55299U 23010AG  24193.18188953 -.00000962  00000-0 -72805-4 0  9993,2 55299  70.0006 113.5400 0002822 269.3443  90.7393 14.98336046 82111,6950.174,96.107,574.001,570.078,0.0
55299.0,STARLINK-5270,PAYLOAD,2024-07-12 04:23:55,14.98332843,0.0002883,70.0004,111.0143,270.592,89.4908,6.1997e-05,6.47e-06,0.0,0 STARLINK-5270,1 55299U 23010AG  24194.18328600  .00000647  00000-0  61997-4 0  9997,2 55299  70.0004 111.0143 0002883 270.5920  89.4908 14.98332843 82261,6950.184,96.107,574.053,570.045,0.0
55299.0,STARLINK-5270,PAYLOAD,2024-07-12 12:24:36,14.98329858,0.0002846,70.0005,110.1721,271.2555,88.8278,3.9066e-05,3.73e-06,0.0,0 STARLINK-5270,1 55299U 23010AG  24194.51708814  .00000373  00000-0  39066-4 0  9991,2 55299  70.0005 110.1721 0002846 271.2555  88.8278 14.98329858 83508,6950.193,96.107,574.036,570.08,0.0
55299.0,STARLINK-5270,PAYLOAD,2024-07-12 22:01:24,14.98329974,0.0002841,70.0005,109.1622,271.4164,88.667,8.2449e-07,-8.3e-07,0.0,0 STARLINK-5270,1 55299U 23010AG  24194.91764891 -.00000083  00000-0  82449-6 0  9996,2 55299  70.0005 109.1622 0002841 271.4164  88.6670 14.98329974 83568,6950.193,96.107,574.033,570.083,0.0
55299.0,STARLINK-5270,PAYLOAD,2024-07-13 04:25:56,14.98335528,0.0002896,70.0004,108.4896,271.9093,88.1734,4.5343e-05,4.48e-06,0.0,0 STARLINK-5270,1 55299U 23010AG  24195.18468361  .00000448  00000-0  45343-4 0  9993,2 55299  70.0004 108.4896 0002896 271.9093  88.1734 14.98335528 82419,6950.176,96.107,574.054,570.028,0.0
55299.0,STARLINK-5270,PAYLOAD,2024-07-13 20:27:17,14.98332961,0.0002756,70.0007,106.8065,273.108,86.9764,-8.1464e-05,-1.065e-05,0.0,0 STARLINK-5270,1 55299U 23010AG  24195.85228868 -.00001065  00000-0 -81464-4 0  9995,2 55299  70.0007 106.8065 0002756 273.1080  86.9764 14.98332961 82515,6950.184,96.107,573.964,570.133,0.0
55299.0,STARLINK-5270,PAYLOAD,2024-07-13 22:03:25,14.98337236,0.0002809,70.0006,106.6382,273.8581,86.2257,-0.00015928,-1.993e-05,0.0,0 STARLINK-5270,1 55299U 23010AG  24195.91904871 -.00001993  00000-0 -15928-3 0  9998,2 55299  70.0006 106.6382 0002809 273.8581  86.2257 14.98337236 83719,6950.171,96.107,573.988,570.083,0.0
55299.0,STARLINK-5270,PAYLOAD,2024-07-14 10:52:30,14.98331165,0.0002649,70.0009,105.2924,270.9503,89.1353,-0.00011412,-1.454e-05,0.0,0 STARLINK-5270,1 55299U 23010AG  24196.45312851 -.00001454  00000-0 -11412-3 0  9995,2 55299  70.0009 105.2924 0002649 270.9503  89.1353 14.98331165 83795,6950.189,96.107,573.895,570.213,0.0
55299.0,STARLINK-5270,PAYLOAD,2024-07-14 20:29:18,14.98329527,0.0002796,70.0004,104.281,270.6731,89.4108,-1.3734e-06,-1.09e-06,0.0,0 STARLINK-5270,1 55299U 23010AG  24196.85368588 -.00000109  00000-0 -13734-5 0  9994,2 55299  70.0004 104.2810 0002796 270.6731  89.4108 14.98329527 82661,6950.194,96.107,574.003,570.116,0.0
55299.0,STARLINK-5270,PAYLOAD,2024-07-14 22:05:26,14.98329566,0.000281,70.0003,104.1135,269.0653,91.0184,-9.347e-06,-2.04e-06,0.0,0 STARLINK-5270,1 55299U 23010AG  24196.92044599 -.00000204  00000-0 -93470-5 0  9996,2 55299  70.0003 104.1135 0002810 269.0653  91.0184 14.98329566 83860,6950.194,96.107,574.012,570.106,0.0
55299.0,STARLINK-5270,PAYLOAD,2024-07-15 10:54:30,14.98337196,0.0002854,70.0009,102.7654,276.9256,83.1578,-0.00010954,-1.4e-05,0.0,0 STARLINK-5270,1 55299U 23010AG  24197.45452291 -.00001400  00000-0 -10954-3 0  9990,2 55299  70.0009 102.7654 0002854 276.9256  83.1578 14.98337196 83946,6950.171,96.107,574.019,570.052,0.0
55299.0,STARLINK-5270,PAYLOAD,2024-07-15 20:31:19,14.98325048,0.0002648,70.0008,101.7569,269.8797,90.2059,-3.8717e-05,-5.55e-06,0.0,0 STARLINK-5270,1 55299U 23010AG  24197.85508924 -.00000555  00000-0 -38717-4 0  9997,2 55299  70.0008 101.7569 0002648 269.8797  90.2059 14.98325048 82812,6950.208,96.107,573.914,570.233,0.0
55299.0,STARLINK-5270,PAYLOAD,2024-07-15 22:07:27,14.98325024,0.000263,70.0009,101.5886,268.8499,91.2359,-3.3894e-05,-4.97e-06,0.0,0 STARLINK-5270,1 55299U 23010AG  24197.92184924 -.00000497  00000-0 -33894-4 0  9991,2 55299  70.0009 101.5886 0002630 268.8499  91.2359 14.98325024 84014,6950.208,96.107,573.901,570.245,0.0
55299.0,STARLINK-5270,PAYLOAD,2024-07-16 02:55:51,14.98327295,0.0002642,70.001,101.0839,266.6978,93.3879,1.8526e-05,1.28e-06,0.0,0 STARLINK-5270,1 55299U 23010AG  24198.12212646  .00000128  00000-0  18526-4 0  9991,2 55299  70.0010 101.0839 0002642 266.6978  93.3879 14.98327295 84045,6950.201,96.107,573.902,570.23,0.0
55299.0,STARLINK-5270,PAYLOAD,2024-07-16 20:33:20,14.98331842,0.0002732,70.001,99.2332,271.2115,88.8731,1.1115e-05,4e-07,0.0,0 STARLINK-5270,1 55299U 23010AG  24198.85648313  .00000040  00000-0  11115-4 0  9995,2 55299  70.0010  99.2332 0002732 271.2115  88.8731 14.98331842 82964,6950.187,96.107,573.951,570.153,0.0
55299.0,STARLINK-5270,PAYLOAD,2024-07-16 22:09:28,14.98331609,0.0002736,70.001,99.0649,271.1712,88.9134,9.0219e-06,1.5e-07,0.0,0 STARLINK-5270,1 55299U 23010AG  24198.92324324  .00000015  00000-0  90219-5 0  9991,2 55299  70.0010  99.0649 0002736 271.1712  88.9134 14.98331609 84162,6950.188,96.107,573.954,570.151,0.0
55299.0,STARLINK-5270,PAYLOAD,2024-07-17 02:57:51,14.98339094,0.0002692,70.0009,98.5599,265.8646,94.2205,8.066e-05,8.7e-06,0.0,0 STARLINK-5270,1 55299U 23010AG  24199.12351576  .00000870  00000-0  80660-4 0  9990,2 55299  70.0009  98.5599 0002692 265.8646  94.2205 14.98339094 83002,6950.165,96.106,573.901,570.159,0.0
55299.0,STARLINK-5270,PAYLOAD,2024-07-17 10:58:35,14.98308414,0.0001759,70.0009,97.7185,289.8204,70.2765,-0.00022555,-2.781e-05,0.0,0 STARLINK-5270,1 55299U 23010AG  24199.45734960 -.00002781  00000-0 -22555-3 0  9991,2 55299  70.0009  97.7185 0001759 289.8204  70.2765 14.98308414 83055,6950.26,96.108,573.347,570.902,0.0
55299.0,STARLINK-5270,PAYLOAD,2024-07-17 22:11:32,14.98291341,0.0002806,70.0006,96.5381,274.954,85.1298,-0.0003039,-3.713e-05,0.0,0 STARLINK-5270,1 55299U 23010AG  24199.92468614 -.00003713  00000-0 -30390-3 0  9995,2 55299  70.0006  96.5381 0002806 274.9540  85.1298 14.98291341 84315,6950.312,96.109,574.128,570.227,0.0
55299.0,STARLINK-5270,PAYLOAD,2024-07-18 02:59:55,14.98318515,0.0002771,70.0007,96.0344,269.9966,90.0876,-5.6693e-05,-7.69e-06,0.0,0 STARLINK-5270,1 55299U 23010AG  24200.12494413 -.00000769  00000-0 -56693-4 0  9999,2 55299  70.0007  96.0344 0002771 269.9966  90.0876 14.98318515 83158,6950.228,96.108,574.019,570.167,0.0
55299.0,STARLINK-5270,PAYLOAD,2024-07-18 11:00:34,14.9832756,0.0002977,70.0002,95.1929,269.793,90.2888,4.7325e-05,4.72e-06,0.0,0 STARLINK-5270,1 55299U 23010AG  24200.45873679  .00000472  00000-0  47325-4 0  9991,2 55299  70.0002  95.1929 0002977 269.7930  90.2888 14.98327560 83200,6950.2,96.107,574.135,569.996,0.0
55299.0,STARLINK-5270,PAYLOAD,2024-07-18 20:37:22,14.98340352,0.0002963,70.0002,94.1821,271.0465,89.0355,0.00012532,1.403e-05,0.0,0 STARLINK-5270,1 55299U 23010AG  24200.85928622  .00001403  00000-0  12532-3 0  9990,2 55299  70.0002  94.1821 0002963 271.0465  89.0355 14.98340352 83269,6950.161,96.106,574.085,569.967,0.0
55299.0,STARLINK-5270,PAYLOAD,2024-07-18 22:13:30,14.98341537,0.0002897,70.0003,94.0139,270.8389,89.2438,0.00012265,1.371e-05,0.0,0 STARLINK-5270,1 55299U 23010AG  24200.92604515  .00001371  00000-0  12265-3 0  9997,2 55299  70.0003  94.0139 0002897 270.8389  89.2438 14.98341537 84462,6950.157,96.106,574.036,570.009,0.0
55299.0,STARLINK-5270,PAYLOAD,2024-07-19 03:01:53,14.98353937,0.0003068,69.9999,93.509,268.5299,91.5509,0.00016514,1.879e-05,0.0,0 STARLINK-5270,1 55299U 23010AG  24201.12631399  .00001879  00000-0  16514-3 0  9994,2 55299  69.9999  93.5090 0003068 268.5299  91.5509 14.98353937 83302,6950.119,96.105,574.116,569.852,0.0
55299.0,STARLINK-5270,PAYLOAD,2024-07-19 20:39:23,14.98316231,0.0002494,70.0017,91.6592,263.6068,96.4807,0.00041733,4.888e-05,0.0,0 STARLINK-5270,1 55299U 23010AG  24201.86069029  .00004888  00000-0  41733-3 0  9994,2 55299  70.0017  91.6592 0002494 263.6068  96.4807 14.98316231 83417,6950.235,96.108,573.834,570.367,0.0
55299.0,STARLINK-5270,PAYLOAD,2024-07-19 22:15:31,14.98317757,0.0002433,70.0019,91.491,263.9671,96.121,0.00040902,4.789e-05,0.0,0 STARLINK-5270,1 55299U 23010AG  24201.92745006  .00004789  00000-0  40902-3 0  9994,2 55299  70.0019  91.4910 0002433 263.9671  96.1210 14.98317757 84619,6950.231,96.108,573.787,570.405,0.0
55299.0,STARLINK-5270,PAYLOAD,2024-07-20 09:28:27,14.98335388,0.0002809,70.0002,90.3099,273.8817,86.2021,8.047e-05,8.67e-06,0.0,0 STARLINK-5270,1 55299U 23010AG  24202.39476766  .00000867  00000-0  80470-4 0  9998,2 55299  70.0002  90.3099 0002809 273.8817  86.2021 14.98335388 83491,6950.176,96.107,573.994,570.089,0.0
55299.0,STARLINK-5270,PAYLOAD,2024-07-20 22:17:32,14.98337255,0.0002664,70.0011,88.9654,267.8949,92.1905,-0.00012304,-1.561e-05,0.0,0 STARLINK-5270,1 55299U 23010AG  24202.92884897 -.00001561  00000-0 -12304-3 0  9999,2 55299  70.0011  88.9654 0002664 267.8949  92.1905 14.98337255 84762,6950.17,96.107,573.887,570.184,0.0
55299.0,STARLINK-5270,PAYLOAD,2024-07-21 03:05:56,14.98337796,0.000261,70.001,88.4603,261.0153,99.0711,-7.2302e-05,-9.56e-06,0.0,0 STARLINK-5270,1 55299U 23010AG  24203.12912600 -.00000956  00000-0 -72302-4 0  9998,2 55299  70.0010  88.4603 0002610 261.0153  99.0711 14.98337796 84798,6950.169,96.106,573.848,570.22,0.0
